NORAD_CAT_ID,OBJECT_NAME,OBJECT_TYPE,EPOCH,MEAN_MOTION,ECCENTRICITY,INCLINATION,RA_OF_ASC_NODE,ARG_OF_PERICENTER,MEAN_ANOMALY,BSTAR,MEAN_MOTION_DOT,MEAN_MOTION_DDOT,TLE_LINE0,TLE_LINE1,TLE_LINE2,SEMIMAJOR_AXIS,PERIOD,APOGEE,PERIGEE,DECAYED
52125.0,STARLINK-3727,PAYLOAD,2024-05-06 11:39:15,15.08856495,0.0001348,53.2155,206.7633,78.2528,281.8616,0.00057091,8.814e-05,0.0,0 STARLINK-3727,1 52125U 22029AP  24127.48559730  .00008814  00000-0  57091-3 0  9993,2 52125  53.2155 206.7633 0001348  78.2528 281.8616 15.08856495119456,6917.83,95.437,540.627,538.762,0.0
52125.0,STARLINK-3727,PAYLOAD,2024-05-07 05:08:30,15.0884804,0.0001671,53.2164,203.4935,84.9847,275.1336,0.00016098,2.275e-05,0.0,0 STARLINK-3727,1 52125U 22029AP  24128.21423776  .00002275  00000-0  16098-3 0  9992,2 52125  53.2164 203.4935 0001671  84.9847 275.1336 15.08848040119566,6917.856,95.437,540.877,538.565,0.0
52125.0,STARLINK-3727,PAYLOAD,2024-05-07 11:30:02,15.08842413,0.0001443,53.2166,202.3028,88.6311,271.4847,9.245e-05,1.184e-05,0.0,0 STARLINK-3727,1 52125U 22029AP  24128.47919879  .00001184  00000-0  92450-4 0  9999,2 52125  53.2166 202.3028 0001443  88.6311 271.4847 15.08842413119602,6917.873,95.437,540.736,538.74,0.0
52125.0,STARLINK-3727,PAYLOAD,2024-05-08 11:20:52,15.08815623,0.0001141,53.2176,197.8403,88.4008,271.7115,-8.562e-05,-1.649e-05,0.0,0 STARLINK-3727,1 52125U 22029AP  24129.47282734 -.00001649  00000-0 -85620-4 0  9992,2 52125  53.2176 197.8403 0001141  88.4008 271.7115 15.08815623119754,6917.955,95.439,540.609,539.031,0.0
52125.0,STARLINK-3727,PAYLOAD,2024-05-09 04:50:05,15.08833163,0.0001496,53.2167,194.5712,96.2378,263.8784,0.00011457,1.536e-05,0.0,0 STARLINK-3727,1 52125U 22029AP  24130.20145381  .00001536  00000-0  11457-3 0  9990,2 52125  53.2167 194.5712 0001496  96.2378 263.8784 15.08833163119866,6917.901,95.438,540.801,538.731,0.0
52125.0,STARLINK-3727,PAYLOAD,2024-05-09 11:11:36,15.08851774,0.0001208,53.2163,193.3817,83.6717,276.4412,0.0002603,3.859e-05,0.0,0 STARLINK-3727,1 52125U 22029AP  24130.46639999  .00003859  00000-0  26030-3 0  9994,2 52125  53.2163 193.3817 0001208  83.6717 276.4412 15.08851774119904,6917.844,95.437,540.545,538.874,0.0
52125.0,STARLINK-3727,PAYLOAD,2024-05-10 04:40:52,15.08839534,0.0001182,53.2167,190.115,82.0772,278.0354,0.00035621,5.386e-05,0.0,0 STARLINK-3727,1 52125U 22029AP  24131.19504917  .00005386  00000-0  35621-3 0  9999,2 52125  53.2167 190.1150 0001182  82.0772 278.0354 15.08839534120015,6917.882,95.438,540.565,538.929,0.0
52125.0,STARLINK-3727,PAYLOAD,2024-05-10 11:02:24,15.08842407,0.0001199,53.2172,188.925,84.9509,275.162,0.00036059,5.456e-05,0.0,0 STARLINK-3727,1 52125U 22029AP  24131.46000622  .00005456  00000-0  36059-3 0  9997,2 52125  53.2172 188.9250 0001199  84.9509 275.1620 15.08842407120055,6917.873,95.437,540.567,538.909,0.0
52125.0,STARLINK-3727,PAYLOAD,2024-05-11 12:28:34,15.08824254,0.0001035,53.2162,184.1681,107.9888,252.1217,-0.00053372,-8.768e-05,0.0,0 STARLINK-3727,1 52125U 22029AP  24132.51984704 -.00008768  00000-0 -53372-3 0  9994,2 52125  53.2162 184.1681 0001035 107.9888 252.1217 15.08824254120210,6917.929,95.439,540.51,539.078,0.0
52125.0,STARLINK-3727,PAYLOAD,2024-05-11 20:25:31,15.08801778,0.0001279,53.2158,182.6789,88.6122,271.5017,-0.00069388,-0.00011302,0.0,0 STARLINK-3727,1 52125U 22029AP  24132.85106394 -.00011302  00000-0 -69388-3 0  9994,2 52125  53.2158 182.6789 0001279  88.6122 271.5017 15.08801778120267,6917.997,95.44,540.747,538.977,0.0
52125.0,STARLINK-3727,PAYLOAD,2024-05-12 12:19:25,15.08778005,0.000109,53.2157,179.7064,96.4187,263.693,-0.00077266,-0.00012542,0.0,0 STARLINK-3727,1 52125U 22029AP  24133.51349528 -.00012542  00000-0 -77266-3 0  9997,2 52125  53.2157 179.7064 0001090  96.4187 263.6930 15.08778005120361,6918.07,95.441,540.689,539.181,0.0
52125.0,STARLINK-3727,PAYLOAD,2024-05-12 20:16:20,15.08819507,8.39e-05,53.2158,178.2192,87.9473,272.1615,-2.3686e-05,-6.64e-06,0.0,0 STARLINK-3727,1 52125U 22029AP  24133.84467975 -.00000664  00000-0 -23686-4 0  9990,2 52125  53.2158 178.2192 0000839  87.9473 272.1615 15.08819507120415,6917.943,95.439,540.388,539.228,0.0
52125.0,STARLINK-3727,PAYLOAD,2024-05-13 12:10:10,15.08862117,0.0001506,53.2169,175.2399,109.3382,250.7773,-0.00029574,-4.995e-05,0.0,0 STARLINK-3727,1 52125U 22029AP  24134.50707145 -.00004995  00000-0 -29574-3 0  9992,2 52125  53.2169 175.2399 0001506 109.3382 250.7773 15.08862117120516,6917.813,95.436,540.72,538.636,0.0
52125.0,STARLINK-3727,PAYLOAD,2024-05-13 20:07:06,15.08851884,0.0001444,53.2173,173.7549,100.9085,259.207,2.544e-06,-2.47e-06,0.0,0 STARLINK-3727,1 52125U 22029AP  24134.83826952 -.00000247  00000-0  25440-5 0  9991,2 52125  53.2173 173.7549 0001444 100.9085 259.2070 15.08851884120567,6917.844,95.437,540.708,538.71,0.0
52125.0,STARLINK-3727,PAYLOAD,2024-05-14 08:50:12,15.08824677,0.0001274,53.2166,171.3752,99.1035,261.0101,0.00060684,9.379e-05,0.0,0 STARLINK-3727,1 52125U 22029AP  24135.36820365  .00009379  00000-0  60684-3 0  9993,2 52125  53.2166 171.3752 0001274  99.1035 261.0101 15.08824677120649,6917.927,95.439,540.674,538.911,0.0
52125.0,STARLINK-3727,PAYLOAD,2024-05-14 19:57:55,15.08821465,0.0001324,53.2168,169.2939,100.4615,259.6527,0.00082918,0.00012926,0.0,0 STARLINK-3727,1 52125U 22029AP  24135.83188901  .00012926  00000-0  82918-3 0  9994,2 52125  53.2168 169.2939 0001324 100.4615 259.6527 15.08821465120715,6917.937,95.439,540.718,538.886,0.0
52125.0,STARLINK-3727,PAYLOAD,2024-05-15 02:19:26,15.08863172,0.0001428,53.2171,168.1036,102.1826,257.9327,0.00033396,5.034e-05,0.0,0 STARLINK-3727,1 52125U 22029AP  24136.09682941  .00005034  00000-0  33396-3 0  9994,2 52125  53.2171 168.1036 0001428 102.1826 257.9327 15.08863172120757,6917.81,95.436,540.662,538.687,0.0
52125.0,STARLINK-3727,PAYLOAD,2024-05-15 08:40:58,15.08875363,0.0001412,53.2156,166.9155,96.7427,263.3726,0.00049114,7.545e-05,0.0,0 STARLINK-3727,1 52125U 22029AP  24136.36178576  .00007545  00000-0  49114-3 0  9992,2 52125  53.2156 166.9155 0001412  96.7427 263.3726 15.08875363120799,6917.772,95.435,540.614,538.661,0.0
52125.0,STARLINK-3727,PAYLOAD,2024-05-16 05:20:58,15.08865177,0.0001619,53.2157,163.046,98.2741,261.8434,2.7312e-05,1.47e-06,0.0,0 STARLINK-3727,1 52125U 22029AP  24137.22289537  .00000147  00000-0  27312-4 0  9996,2 52125  53.2157 163.0460 0001619  98.2741 261.8434 15.08865177120928,6917.803,95.436,540.788,538.548,0.0
52125.0,STARLINK-3727,PAYLOAD,2024-05-16 10:07:07,15.0886136,0.0001462,53.2154,162.1537,96.7462,263.3696,2.0699e-05,4.2e-07,0.0,0 STARLINK-3727,1 52125U 22029AP  24137.42161448  .00000042  00000-0  20699-4 0  9993,2 52125  53.2154 162.1537 0001462  96.7462 263.3696 15.08861360120959,6917.815,95.436,540.691,538.669,0.0
52125.0,STARLINK-3727,PAYLOAD,2024-05-16 18:04:02,15.08861724,0.0001346,53.2157,160.6671,95.0841,265.0304,-9.065e-06,-4.32e-06,0.0,0 STARLINK-3727,1 52125U 22029AP  24137.75280813 -.00000432  00000-0 -90650-5 0  9997,2 52125  53.2157 160.6671 0001346  95.0841 265.0304 15.08861724121004,6917.814,95.436,540.61,538.748,0.0
52125.0,STARLINK-3727,PAYLOAD,2024-05-17 05:11:44,15.08852042,0.0001417,53.2161,158.5899,99.531,260.5843,-0.00018281,-3.197e-05,0.0,0 STARLINK-3727,1 52125U 22029AP  24138.21648817 -.00003197  00000-0 -18281-3 0  9990,2 52125  53.2161 158.5899 0001417  99.5310 260.5843 15.08852042121074,6917.844,95.437,540.689,538.728,0.0
52125.0,STARLINK-3727,PAYLOAD,2024-05-17 08:22:30,15.08857773,0.0001427,53.2169,157.9965,99.9609,260.1545,-8.2696e-05,-1.605e-05,0.0,0 STARLINK-3727,1 52125U 22029AP  24138.34896841 -.00001605  00000-0 -82696-4 0  9990,2 52125  53.2169 157.9965 0001427  99.9609 260.1545 15.08857773121098,6917.826,95.436,540.678,538.704,0.0
52125.0,STARLINK-3727,PAYLOAD,2024-05-18 05:02:32,15.0883651,0.0001341,53.2165,154.1303,99.6171,260.4972,-1.4365e-06,-3.11e-06,0.0,0 STARLINK-3727,1 52125U 22029AP  24139.21009657 -.00000311  00000-0 -14365-5 0  9990,2 52125  53.2165 154.1303 0001341  99.6171 260.4972 15.08836510121223,6917.891,95.438,540.684,538.828,0.0
52125.0,STARLINK-3727,PAYLOAD,2024-05-18 09:48:41,15.08838084,0.0001497,53.2171,153.2394,98.862,261.2542,-1.934e-05,-5.96e-06,0.0,0 STARLINK-3727,1 52125U 22029AP  24139.40881604 -.00000596  00000-0 -19340-4 0  9993,2 52125  53.2171 153.2394 0001497  98.8620 261.2542 15.08838084121255,6917.886,95.438,540.787,538.716,0.0
52125.0,STARLINK-3727,PAYLOAD,2024-05-18 17:45:37,15.0883718,0.0001423,53.2168,151.7516,95.6279,264.4876,-2.1411e-05,-6.29e-06,0.0,0 STARLINK-3727,1 52125U 22029AP  24139.74001698 -.00000629  00000-0 -21411-4 0  9996,2 52125  53.2168 151.7516 0001423  95.6279 264.4876 15.08837180121301,6917.889,95.438,540.738,538.77,0.0
52125.0,STARLINK-3727,PAYLOAD,2024-05-19 09:39:29,15.08814542,0.0001585,53.216,148.7776,97.0349,263.0823,0.0003921,5.953e-05,0.0,0 STARLINK-3727,1 52125U 22029AP  24140.40241971  .00005953  00000-0  39210-3 0  9999,2 52125  53.2160 148.7776 0001585  97.0349 263.0823 15.08814542121405,6917.958,95.439,540.92,538.727,0.0
52125.0,STARLINK-3727,PAYLOAD,2024-05-19 17:36:24,15.08842968,0.0001378,53.2161,147.2905,92.3897,267.7253,3.5609e-06,-2.31e-06,0.0,0 STARLINK-3727,1 52125U 22029AP  24140.73361359 -.00000231  00000-0  35609-5 0  9993,2 52125  53.2161 147.2905 0001378  92.3897 267.7253 15.08842968121456,6917.871,95.437,540.69,538.783,0.0
52125.0,STARLINK-3727,PAYLOAD,2024-05-20 07:54:52,15.0883952,0.0001432,53.2159,144.6144,90.5128,269.6028,0.00010018,1.307e-05,0.0,0 STARLINK-3727,1 52125U 22029AP  24141.32977527  .00001307  00000-0  10018-3 0  9998,2 52125  53.2159 144.6144 0001432  90.5128 269.6028 15.08839520121548,6917.882,95.438,540.737,538.756,0.0
52125.0,STARLINK-3727,PAYLOAD,2024-05-21 04:34:53,15.08835819,0.0001508,53.2159,140.7482,90.451,269.6655,3.5686e-05,2.8e-06,0.0,0 STARLINK-3727,1 52125U 22029AP  24142.19090131  .00000280  00000-0  35686-4 0  9999,2 52125  53.2159 140.7482 0001508  90.4510 269.6655 15.08835819121675,6917.893,95.438,540.801,538.715,0.0
